#aV2008  2  7  0  0   .00000000      96 DD+AD WGS84 FIT  NGA
## 1465 345600.00000000   900.00000000 54503  .0000000000000
+   31     1  2  3  4  5  6  8  9 10 11 12 13 14 15 16 17 18
+         19 20 21 22 23 24 25 26 27 28 29 30 31 32  0  0  0
+          0  0  0  0  0  0  0  0  0  0  0  0  0  0  0  0  0
+          0  0  0  0  0  0  0  0  0  0  0  0  0  0  0  0  0
+          0  0  0  0  0  0  0  0  0  0  0  0  0  0  0  0  0
++         0  0  0  0  0  0  0  0  0  0  0  0  0  0  0  0  0
++         0  0  0  0  0  0  0  0  0  0  0  0  0  0  0  0  0
++         0  0  0  0  0  0  0  0  0  0  0  0  0  0  0  0  0
++         0  0  0  0  0  0  0  0  0  0  0  0  0  0  0  0  0
++         0  0  0  0  0  0  0  0  0  0  0  0  0  0  0  0  0
%c cc cc ccc ccc cccc cccc cccc cccc ccccc ccccc ccccc ccccc
%c cc cc ccc ccc cccc cccc cccc cccc ccccc ccccc ccccc ccccc
%f  0.0000000  0.000000000  0.00000000000  0.000000000000000
%f  0.0000000  0.000000000  0.00000000000  0.000000000000000
%i    0    0    0    0      0      0      0      0         0
%i    0    0    0    0      0      0      0      0         0
/*      NGA, ST. LOUIS,MO.                                  
/*   EPHEMERIS COMPUTED FROM  3 DAYS OF DATA                
/* CCCCCCCCCCCCCCCCCCCCCCCCCCCCCCCCCCCCCCCCCCCCCCCCCCCCCCCCC
/* CCCCCCCCCCCCCCCCCCCCCCCCCCCCCCCCCCCCCCCCCCCCCCCCCCCCCCCCC
*  2008  2  7  9  0   .00000000                                                 
P  1  14409.262519  -1513.547810 -22037.679025    184.109189                    
V  1    440.497715  28434.679356  -1715.701147       .025261                    
P  2 -23247.962912  11575.018381  -4838.520088    172.426561                    
V  2   2966.636144  -6289.370950 -30772.604132       .030388                    
P  3  12511.009245 -12798.399251  19273.761918    183.839176                    
V  3   6038.752536  24573.076570  12586.300860       .053075                    
P  4 -22416.678866   2098.738361 -14466.496776     -4.761626                    
V  4  13941.976001 -11770.743457 -23098.764695      -.063849                    
P  5   6596.609484  17492.002438 -19180.768616    679.246913                    
V  5 -22745.843276  -7225.253044 -14472.093275       .151633                    
P  6  11370.843889  20695.843003  12316.502979      9.744645                    
V  6  -1331.921181  15664.762545 -25490.436430       .189656                    
P  8 -17325.551426  -4905.115482  19595.152837   -140.022906                    
V  8  20949.292623 -13421.342360  14642.900017      -.015432                    
P  9  -9989.122889  19903.688163 -14959.171891    109.340827                    
V  9 -15624.696615   9071.297256  23649.869214       .016992                    
P 10 -17579.590866   5681.061625  19076.229461   -238.110159                    
V 10 -21046.145295 -12337.487789 -15289.715279      -.132122                    
P 11   5403.117373 -21574.899392 -14436.166829     27.040977                    
V 11  15802.828084 -10214.175612  21725.821866      -.000078                    
P 12    580.027899  16406.367976 -20801.930679   -355.994617                    
V 12 -24194.955408 -11082.700214  -9298.667148      -.008132                    
P 13  -6541.478941 -24003.370287   9237.138196    238.758481                    
V 13   1288.417101 -11866.869454 -29553.048677       .021511                    
P 14  13657.160389  10531.994092 -20124.560497   -299.567130                    
V 14    239.543548  25689.253106  13451.272309       .030098                    
P 15  -7523.964390  21887.568820  13060.723442    -75.161603                    
V 15  -3591.344764 -16317.215923  25324.236882      -.024371                    
P 16  20569.979168  -2489.145406  16791.703287    132.759003                    
V 16  18038.039535  11062.888540 -20368.816358       .001947                    
P 17 -14282.322541 -11107.224363 -19472.848858     42.968126                    
V 17   -179.744510 -24759.283759  14086.626355      -.006957                    
P 18  17076.372094  17778.068361  10503.528534   -206.317553                    
V 18 -12602.451083  -4007.105984  27377.055954       .029808                    
P 19   8883.850444 -21602.553167  12569.034483     19.835904                    
V 19   2457.372034  15902.553199  25927.689837       .014712                    
P 20  -3291.690220 -17370.066264 -19947.190480    121.053852                    
V 20  23206.479302   9664.839842 -12265.375515      -.007484                    
P 21  10054.061489  12320.311399  21458.375288     72.178355                    
V 21 -22814.592663  14333.215588   1881.199252      -.007617                    
P 22  23954.019625  11252.548419  -2326.204552    208.182222                    
V 22   1209.491777   4324.732643  31244.108097       .005929                    
P 23   1348.107351 -26041.792281  -4396.957023    332.255975                    
V 23   2970.059237   5354.950092 -31487.521969       .028586                    
P 24  -4468.318077  18347.110675  18961.893091     68.623663                    
V 24 -20973.865628  10992.350991 -15436.249083       .029961                    
P 25  -2199.537638 -16882.348549  20793.022267    508.858255                    
V 25  20260.829744 -15549.361799 -10503.917483       .048032                    
P 26  -9423.293746  19002.654154  15154.781936    176.770115                    
V 26  -2267.467402 -20202.603034  23754.784443       .102152                    
P 27  -9119.362882 -12390.777542  22323.364450    166.154617                    
V 27  21327.229300 -16099.852665   -399.430997       .026647                    
P 28 -23446.244388 -12876.259680    707.359753    -14.803712                    
V 28   1528.526092  -1945.857604  31571.699092      -.004460                    
P 29   5160.002820  25479.048482   5629.333078    -64.100609                    
V 29  -2383.823172   7119.277100 -30637.081635       .062187                    
P 30  12652.792107  17812.159169 -15502.683748     62.909084                    
V 30 -18290.471518  -5851.006717 -22028.133536       .014030                    
P 31  22715.912705  -4618.932374 -12838.433309     -8.293709                    
V 31 -12561.565857  11061.440967 -25691.213974      -.013738                    
P 32  23578.944795   6403.063469  -9749.557428    222.172617                    
V 32   9933.609718   8862.162237  28688.791882       .095126                    
EOF
